BEESAT-4                
1 41619U 16040W   22093.88471818  .00019452  00000+0  69519-3 0  9996
2 41619  97.2261 146.5881 0010209  32.4364 327.7502 15.28812489309328
CAS-2T & KS-1Q          
1 41847U 16066G   22093.78040892  .00001511  00000+0  23451-3 0  9992
2 41847  98.5583 158.5084 0365363  73.2734 290.8210 14.38458568283611
NAYIF-1 (EO-88)         
1 42017U 17008BX  22093.71252909  .00019873  00000+0  64557-3 0  9998
2 42017  97.2762 161.0246 0006570 146.0127 214.1537 15.31939039285627
ZHUHAI-1 02 (CAS-4B)    
1 42759U 17034B   22093.83480595  .00005855  00000+0  35492-3 0  9998
2 42759  43.0189  23.8004 0008013 188.4430 220.4471 15.11227819265067
ZHUHAI-1 01 (CAS-4A)    
1 42761U 17034D   22093.87483814  .00005925  00000+0  35806-3 0  9999
2 42761  43.0191  22.4230 0008488 191.6401 215.9599 15.11319384265079
MAX VALIER SAT          
1 42778U 17036P   22093.65081225  .00009943  00000+0  39377-3 0  9996
2 42778  97.2153 137.3542 0010203 222.9323 137.1121 15.25568992265495
RADFXSAT (FOX-1B)       
1 43017U 17073E   22093.65262741  .00006402  00000+0  48340-3 0  9995
2 43017  97.6836 350.8989 0252598  72.7906 290.0787 14.80682391236040
FOX-1D (AO-92)          
1 43137U 18004AC  22093.73091184  .00012603  00000+0  46755-3 0  9991
2 43137  97.3730 169.6332 0006684 263.3671  96.6808 15.27711799234938
DIWATA-2B               
1 43678U 18084H   22093.94471599  .00001792  00000+0  18242-3 0  9991
2 43678  97.9564 226.4006 0010211 164.0146 196.1386 14.92007325186740
ES'HAIL 2               
1 43700U 18090A   22093.83816926  .00000138  00000+0  00000+0 0  9991
2 43700   0.0168 129.2020 0002337 272.7064 117.7588  1.00274619 12527
FOX-1CLIFF (AO-95)      
1 43770U 18099N   22093.68879203  .00003547  00000+0  32072-3 0  9992
2 43770  97.6277 161.9793 0014834 160.6476 199.5312 14.95986755181837
ITASAT 1                
1 43786U 18099AE  22093.82459843  .00003024  00000+0  27271-3 0  9994
2 43786  97.6301 162.9868 0015651 153.4614 206.7412 14.96196417181895
JY1SAT (JO-97)          
1 43803U 18099AX  22093.73090659  .00004893  00000+0  43365-3 0  9997
2 43803  97.6253 162.6354 0015905 153.5103 206.6935 14.96579820181896
UWE-4                   
1 43880U 18111E   22093.71696350  .00003782  00000+0  32788-3 0  9998
2 43880  97.6734   1.3421 0011039 205.9461 154.1209 14.97643026178519
NEXUS (FO-99)           
1 43937U 19003F   22093.66313123  .00015714  00000+0  56128-3 0  9992
2 43937  97.1396 129.9898 0023030  64.6095 295.7526 15.28666991178541
PSAT2 (NO-104)          
1 44354U 19036R   22093.69221484  .00052647 -56865-5  54312-3 0  9999
2 44354  28.5285 332.9115 0262117 214.1269 144.2222 15.30615200153188
BRICSAT2 (NO-103)       
1 44355U 19036S   22093.60081207  .00559123  10302-3  15253-2 0  9992
2 44355  28.5169 208.9515 0093097  56.6091 304.3387 15.85696189154409
JAISAT-1                
1 44419U 19038F   22093.88469689  .00012305  00000+0  64201-3 0  9993
2 44419  97.6300  63.5149 0021020  35.4568 324.8057 15.15899000151759
DUCHIFAT-3              
1 44854U 19089C   22093.92473546  .00005502  00000+0  43462-3 0  9991
2 44854  36.9637 181.9781 0008660 334.3951  25.6374 15.00452919126736
CAS-6 (TO-108)          
1 44881U 19093C   22093.88794185  .00000817  00000+0  11040-3 0  9997
2 44881  97.8962 174.1633 0016447  70.9129 289.3862 14.81619035123735
RS-44 & BREEZE-KM R/B   
1 44909U 19096E   22093.60569795  .00000015  00000+0  68192-5 0  9990
2 44909  82.5165 280.0080 0218203 134.5832 227.3311 12.79712788105934
ORBITAL FACTORY 2 (OF-2)
1 45113U 19071C   22093.65177646  .00032032  00000+0  76031-3 0  9999
2 45113  51.6404  66.3372 0008348 264.6325  95.3707 15.41380040121825
HUSKYSAT-1 (HO-107)     
1 45119U 19071J   22093.29920443  .00034094  00000+0  82187-3 0  9995
2 45119  51.6397  67.7137 0008033 258.9982 101.0100 15.40883622121760
BY70-2                  
1 45857U 20042B   22093.95164365  .00008754  00000+0  12002-2 0  9992
2 45857  97.9584 171.5621 0009421   7.1810 352.9942 14.78641276 94440
SALSAT                  
1 46495U 20068K   22093.79720528  .00003590  00000+0  26303-3 0  9993
2 46495  97.7227  35.1274 0016916 165.7266 194.4441 15.04083165 82967
BY70-3                  
1 46839U 20079N   22093.86182979  .00028143  00000+0  74110-3 0  9997
2 46839  97.2055 167.0968 0005694 227.4974 224.3970 15.38484866 78764
RADFXSAT-2 (AO-109)     
1 47311U 21002C   22093.83751657  .00010960  00000+0  46046-3 0  9997
2 47311  60.6859 282.8430 0013424 222.9443 137.0598 15.23856361 67083
UVSQ-SAT                
1 47438U 21006AB  22093.72122704  .00009061  00000+0  49255-3 0  9999
2 47438  97.4453 154.2880 0012757 168.3529 191.8000 15.14643140 65968
DIY-1 (ARDUIQUBE)       
1 47963U 21022AH  22093.70749254  .00021822  00000+0  13080-2 0  9998
2 47963  97.5386 356.0521 0019349  36.7227 323.5324 15.10828985 55654
XW-3 (CAS-9)            
1 50466U 21131B   22093.60616306  .00000373  00000+0  13690-3 0  9997
2 50466  98.5837 170.8881 0004646  28.8620 331.2823 14.38458367 14154
